IRIDIUM 106             
1 41917U 17003A   24021.75636612  .00000509  00000+0  17479-3 0  9992
2 41917  86.3956  95.2410 0001770 100.1667 259.9728 14.34216640367445
IRIDIUM 103             
1 41918U 17003B   24021.74368443  .00000016  00000+0 -11870-5 0  9991
2 41918  86.3957  95.1482 0002204  88.5200 271.6248 14.34217052367468
IRIDIUM 109             
1 41919U 17003C   24021.75002649  .00000015  00000+0 -17007-5 0  9993
2 41919  86.3959  95.1909 0002422  96.6370 263.5102 14.34217161367432
IRIDIUM 102             
1 41920U 17003D   24022.13692405  .00000402  00000+0  13635-3 0  9993
2 41920  86.3955  94.9714 0002270  94.5344 265.6111 14.34217548367577
IRIDIUM 105             
1 41921U 17003E   24021.61931528  .00000514  00000+0  17631-3 0  9992
2 41921  86.3939  63.5873 0002191  90.9401 269.2045 14.34220826369351
IRIDIUM 104             
1 41922U 17003F   24022.14960954  .00000159  00000+0  49876-4 0  9999
2 41922  86.3957  94.9952 0002257  91.8295 268.3159 14.34216892367567
IRIDIUM 114             
1 41923U 17003G   24022.15595135  .00000180  00000+0  57236-4 0  9999
2 41923  86.3956  94.9793 0001908 100.4106 259.7305 14.34217701367567
IRIDIUM 108             
1 41924U 17003H   24022.18424118  .00000171  00000+0  53860-4 0  9994
2 41924  86.3933  63.2852 0001890  97.8395 262.3015 14.34217686369424
